{"type": "FeatureCollection", "features": [ {"type": "Feature", "properties": {"norad_id": 40697, "name": "SENTINEL-2A", "group": "resource", "lat": 9.133227149948171, "lon": 54.89277520888427, "alt_km": 790.5108736612901, "timestamp": "2025-12-09T16:56:36.237338+00:00", "meta": {"OBJECT_NAME": "SENTINEL-2A", "OBJECT_ID": "2015-028A", "EPOCH": "2025-12-09T11:51:55.488672", "MEAN_MOTION": 14.30825358, "ECCENTRICITY": 0.0001052, "INCLINATION": 98.5692, "RA_OF_ASC_NODE": 56.0733, "ARG_OF_PERICENTER": 89.9791, "MEAN_ANOMALY": 270.1512, "EPHEMERIS_TYPE": 0, "CLASSIFICATION_TYPE": "U", "NORAD_CAT_ID": 40697, "ELEMENT_SET_NO": 999, "REV_AT_EPOCH": 54660, "BSTAR": 0.00011461, "MEAN_MOTION_DOT": 2.57e-06, "MEAN_MOTION_DDOT": 0}, "tle": {"line1": "1 40697U 15028A   25343.49439223  .00000257  00000+0  11461-3 0  9994", "line2": "2 40697  98.5692  56.0733 0001052  89.9791 270.1512 14.30825358546600"}}, "geometry": {"type": "Point", "coordinates": [54.89277520888427, 9.133227149948171]}}, {"type": "Feature", "properties": {"norad_id": 40701, "name": "GAOFEN-8", "group": "resource", "lat": -37.38850733754079, "lon": 167.62706508270065, "alt_km": 465.09228014732525, "timestamp": "2025-12-09T16:56:36.237348+00:00", "meta": {"OBJECT_NAME": "GAOFEN-8", "OBJECT_ID": "2015-030A", "EPOCH": "2025-12-09T12:25:28.097184", "MEAN_MOTION": 15.38387755, "ECCENTRICITY": 0.0011462, "INCLINATION": 97.6909, "RA_OF_ASC_NODE": 161.5017, "ARG_OF_PERICENTER": 149.0033, "MEAN_ANOMALY": 211.189, "EPHEMERIS_TYPE": 0, "CLASSIFICATION_TYPE": "U", "NORAD_CAT_ID": 40701, "ELEMENT_SET_NO": 999, "REV_AT_EPOCH": 58221, "BSTAR": 0.00079045, "MEAN_MOTION_DOT": 0.00029979, "MEAN_MOTION_DDOT": 0}, "tle": {"line1": "1 40701U 15030A   25343.51768631  .00029979  00000+0  79045-3 0  9998", "line2": "2 40701  97.6909 161.5017 0011462 149.0033 211.1890 15.38387755582211"}}, "geometry": {"type": "Point", "coordinates": [167.62706508270065, -37.38850733754079]}}, {"type": "Feature", "properties": {"norad_id": 40718, "name": "CARBONITE 1 (CBNT-1)", "group": "resource", "lat": 38.100393397650926, "lon": -9.07437550422921, "alt_km": 611.5491662497752, "timestamp": "2025-12-09T16:56:36.237358+00:00", "meta": {"OBJECT_NAME": "CARBONITE 1 (CBNT-1)", "OBJECT_ID": "2015-032D", "EPOCH": "2025-12-09T11:26:53.226816", "MEAN_MOTION": 14.82719546, "ECCENTRICITY": 0.0014211, "INCLINATION": 97.6405, "RA_OF_ASC_NODE": 164.6648, "ARG_OF_PERICENTER": 192.0172, "MEAN_ANOMALY": 168.0705, "EPHEMERIS_TYPE": 0, "CLASSIFICATION_TYPE": "U", "NORAD_CAT_ID": 40718, "ELEMENT_SET_NO": 999, "REV_AT_EPOCH": 56122, "BSTAR": 0.00027899, "MEAN_MOTION_DOT": 2.205e-05, "MEAN_MOTION_DDOT": 0}, "tle": {"line1": "1 40718U 15032D   25343.47700494  .00002205  00000+0  27899-3 0  9999", "line2": "2 40718  97.6405 164.6648 0014211 192.0172 168.0705 14.82719546561229"}}, "geometry": {"type": "Point", "coordinates": [-9.07437550422921, 38.100393397650926]}}, {"type": "Feature", "properties": {"norad_id": 40878, "name": "YAOGAN-27", "group": "resource", "lat": -36.506550784697126, "lon": 145.8819103577772, "alt_km": 1204.6931764799174, "timestamp": "2025-12-09T16:56:36.237369+00:00", "meta": {"OBJECT_NAME": "YAOGAN-27", "OBJECT_ID": "2015-040A", "EPOCH": "2025-12-09T12:11:38.017824", "MEAN_MOTION": 13.1605894, "ECCENTRICITY": 0.0007671, "INCLINATION": 100.1006, "RA_OF_ASC_NODE": 333.2737, "ARG_OF_PERICENTER": 294.9901, "MEAN_ANOMALY": 65.0416, "EPHEMERIS_TYPE": 0, "CLASSIFICATION_TYPE": "U", "NORAD_CAT_ID": 40878, "ELEMENT_SET_NO": 999, "REV_AT_EPOCH": 49271, "BSTAR": -0.00011157, "MEAN_MOTION_DOT": -8.5e-07, "MEAN_MOTION_DDOT": 0}, "tle": {"line1": "1 40878U 15040A   25343.50807891 -.00000085  00000+0 -11157-3 0  9994", "line2": "2 40878 100.1006 333.2737 0007671 294.9901  65.0416 13.16058940492712"}}, "geometry": {"type": "Point", "coordinates": [145.8819103577772, -36.506550784697126]}}, {"type": "Feature", "properties": {"norad_id": 40894, "name": "GAOFEN-9 01", "group": "resource", "lat": 64.75273092214738, "lon": 6.2221230642308925, "alt_km": 596.8368244785279, "timestamp": "2025-12-09T16:56:36.237382+00:00", "meta": {"OBJECT_NAME": "GAOFEN-9 01", "OBJECT_ID": "2015-047A", "EPOCH": "2025-12-09T13:24:32.245056", "MEAN_MOTION": 14.8241087, "ECCENTRICITY": 0.0028622, "INCLINATION": 97.6546, "RA_OF_ASC_NODE": 22.6516, "ARG_OF_PERICENTER": 44.3469, "MEAN_ANOMALY": 316.0031, "EPHEMERIS_TYPE": 0, "CLASSIFICATION_TYPE": "U", "NORAD_CAT_ID": 40894, "ELEMENT_SET_NO": 999, "REV_AT_EPOCH": 55209, "BSTAR": 0.00026716, "MEAN_MOTION_DOT": 2.104e-05, "MEAN_MOTION_DDOT": 0}, "tle": {"line1": "1 40894U 15047A   25343.55870654  .00002104  00000+0  26716-3 0  9990", "line2": "2 40894  97.6546  22.6516 0028622  44.3469 316.0031 14.82410870552096"}}, "geometry": {"type": "Point", "coordinates": [6.2221230642308925, 64.75273092214738]}}, {"type": "Feature", "properties": {"norad_id": 41026, "name": "YAOGAN-28", "group": "resource", "lat": 58.842005901366086, "lon": -46.208129315256386, "alt_km": 479.2318975644348, "timestamp": "2025-12-09T16:56:36.237392+00:00", "meta": {"OBJECT_NAME": "YAOGAN-28", "OBJECT_ID": "2015-064A", "EPOCH": "2025-12-09T13:15:59.527584", "MEAN_MOTION": 15.24266083, "ECCENTRICITY": 0.0012239, "INCLINATION": 97.2807, "RA_OF_ASC_NODE": 121.4354, "ARG_OF_PERICENTER": 136.4722, "MEAN_ANOMALY": 223.7484, "EPHEMERIS_TYPE": 0, "CLASSIFICATION_TYPE": "U", "NORAD_CAT_ID": 41026, "ELEMENT_SET_NO": 999, "REV_AT_EPOCH": 56176, "BSTAR": 0.00050188, "MEAN_MOTION_DOT": 0.00012217, "MEAN_MOTION_DDOT": 0}, "tle": {"line1": "1 41026U 15064A   25343.55277231  .00012217  00000+0  50188-3 0  9995", "line2": "2 41026  97.2807 121.4354 0012239 136.4722 223.7484 15.24266083561762"}}, "geometry": {"type": "Point", "coordinates": [-46.208129315256386, 58.842005901366086]}}, {"type": "Feature", "properties": {"norad_id": 41038, "name": "YAOGAN-29", "group": "resource", "lat": -50.90046727435256, "lon": 16.860832341629365, "alt_km": 626.9742176527207, "timestamp": "2025-12-09T16:56:36.237403+00:00", "meta": {"OBJECT_NAME": "YAOGAN-29", "OBJECT_ID": "2015-069A", "EPOCH": "2025-12-09T12:19:02.366976", "MEAN_MOTION": 14.82879664, "ECCENTRICITY": 4.3e-05, "INCLINATION": 98.0217, "RA_OF_ASC_NODE": 6.6743, "ARG_OF_PERICENTER": 354.5602, "MEAN_ANOMALY": 5.5606, "EPHEMERIS_TYPE": 0, "CLASSIFICATION_TYPE": "U", "NORAD_CAT_ID": 41038, "ELEMENT_SET_NO": 999, "REV_AT_EPOCH": 54251, "BSTAR": 0.00017532, "MEAN_MOTION_DOT": 1.366e-05, "MEAN_MOTION_DDOT": 0}, "tle": {"line1": "1 41038U 15069A   25343.51322184  .00001366  00000+0  17532-3 0  9996", "line2": "2 41038  98.0217   6.6743 0000430 354.5602   5.5606 14.82879664542517"}}, "geometry": {"type": "Point", "coordinates": [16.860832341629365, -50.90046727435256]}}, {"type": "Feature", "properties": {"norad_id": 41167, "name": "KENT RIDGE 1", "group": "resource", "lat": 14.478526264013615, "lon": -51.37445126533094, "alt_km": 490.4507011062424, "timestamp": "2025-12-09T16:56:36.237413+00:00", "meta": {"OBJECT_NAME": "KENT RIDGE 1", "OBJECT_ID": "2015-077B", "EPOCH": "2025-12-09T08:44:52.188288", "MEAN_MOTION": 15.21595309, "ECCENTRICITY": 0.0008537, "INCLINATION": 14.9788, "RA_OF_ASC_NODE": 236.1876, "ARG_OF_PERICENTER": 82.9028, "MEAN_ANOMALY": 277.2264, "EPHEMERIS_TYPE": 0, "CLASSIFICATION_TYPE": "U", "NORAD_CAT_ID": 41167, "ELEMENT_SET_NO": 999, "REV_AT_EPOCH": 55212, "BSTAR": 0.0002593, "MEAN_MOTION_DOT": 6.793e-05, "MEAN_MOTION_DDOT": 0}, "tle": {"line1": "1 41167U 15077B   25343.36449292  .00006793  00000+0  25930-3 0  9991", "line2": "2 41167  14.9788 236.1876 0008537  82.9028 277.2264 15.21595309552128"}}, "geometry": {"type": "Point", "coordinates": [-51.37445126533094, 14.478526264013615]}}, {"type": "Feature", "properties": {"norad_id": 41194, "name": "GAOFEN-4", "group": "resource", "lat": 0.014435087168298269, "lon": 78.50661103960012, "alt_km": 35791.385226095335, "timestamp": "2025-12-09T16:56:36.237427+00:00", "meta": {"OBJECT_NAME": "GAOFEN-4", "OBJECT_ID": "2015-083A", "EPOCH": "2025-12-09T12:21:52.127424", "MEAN_MOTION": 1.00270714, "ECCENTRICITY": 0.00036, "INCLINATION": 0.1623, "RA_OF_ASC_NODE": 80.6897, "ARG_OF_PERICENTER": 106.888, "MEAN_ANOMALY": 182.0998, "EPHEMERIS_TYPE": 0, "CLASSIFICATION_TYPE": "U", "NORAD_CAT_ID": 41194, "ELEMENT_SET_NO": 999, "REV_AT_EPOCH": 3662, "BSTAR": 0, "MEAN_MOTION_DOT": -3.32e-06, "MEAN_MOTION_DDOT": 0}, "tle": {"line1": "1 41194U 15083A   25343.51518666 -.00000332  00000+0  00000+0 0  9998", "line2": "2 41194   0.1623  80.6897 0003600 106.8880 182.0998  1.00270714 36627"}}, "geometry": {"type": "Point", "coordinates": [78.50661103960012, 0.014435087168298269]}}, {"type": "Feature", "properties": {"norad_id": 41240, "name": "JASON-3", "group": "resource", "lat": -59.18105968483658, "lon": 116.01167288294683, "alt_km": 1312.0226196627782, "timestamp": "2025-12-09T16:56:36.237439+00:00", "meta": {"OBJECT_NAME": "JASON-3", "OBJECT_ID": "2016-002A", "EPOCH": "2025-12-09T11:42:49.767264", "MEAN_MOTION": 12.87626372, "ECCENTRICITY": 0.0007132, "INCLINATION": 66.0389, "RA_OF_ASC_NODE": 164.6606, "ARG_OF_PERICENTER": 270.5889, "MEAN_ANOMALY": 89.4313, "EPHEMERIS_TYPE": 0, "CLASSIFICATION_TYPE": "U", "NORAD_CAT_ID": 41240, "ELEMENT_SET_NO": 999, "REV_AT_EPOCH": 46282, "BSTAR": 6.2931e-05, "MEAN_MOTION_DOT": -4.6e-07, "MEAN_MOTION_DDOT": 0}, "tle": {"line1": "1 41240U 16002A   25343.48807601 -.00000046  00000+0  62931-4 0  9996", "line2": "2 41240  66.0389 164.6606 0007132 270.5889  89.4313 12.87626372462820"}}, "geometry": {"type": "Point", "coordinates": [116.01167288294683, -59.18105968483658]}}]}